CTC1_L_00387001-01
1 10000U 25095ME  26075.70034722  .00000000  00000+0  00000-0 0  9996
2 10000  60.0000   0.0000 0000000   0.0000   0.0000 13.03091871    13
CTC1_L_00387001-02
1 10001U 22694RB  26075.70034722  .00000000  00000+0  00000-0 0  9999
2 10001  60.0000   0.0000 0000000   0.0000  90.0000 13.03091871    13
CTC1_L_00387001-03
1 10002U 24669DZ  26075.70034722  .00000000  00000+0  00000-0 0  9994
2 10002  60.0000   0.0000 0000000   0.0000 180.0000 13.03091871    14
CTC1_L_00387001-04
1 10003U 26535EI  26075.70034722  .00000000  00000+0  00000-0 0  9999
2 10003  60.0000   0.0000 0000000   0.0000 270.0000 13.03091871    15
CTC1_L_00387002-01
1 10004U 25344LX  26075.70034722  .00000000  00000+0  00000-0 0  9997
2 10004  60.0000  12.0000 0000000   0.0000  12.0000 13.03091871    13
CTC1_L_00387002-02
1 10005U 22266WD  26075.70034722  .00000000  00000+0  00000-0 0  9998
2 10005  60.0000  12.0000 0000000   0.0000 102.0000 13.03091871    14
CTC1_L_00387002-03
1 10006U 26930VM  26075.70034722  .00000000  00000+0  00000-0 0  9991
2 10006  60.0000  12.0000 0000000   0.0000 192.0000 13.03091871    14
CTC1_L_00387002-04
1 10007U 22477GZ  26075.70034722  .00000000  00000+0  00000-0 0  9994
2 10007  60.0000  12.0000 0000000   0.0000 282.0000 13.03091871    15
CTC1_L_00387003-01
1 10008U 24169CG  26075.70034722  .00000000  00000+0  00000-0 0  9995
2 10008  60.0000  24.0000 0000000   0.0000  24.0000 13.03091871    13
CTC1_L_00387003-02
1 10009U 25846OZ  26075.70034722  .00000000  00000+0  00000-0 0  9999
2 10009  60.0000  24.0000 0000000   0.0000 114.0000 13.03091871    14
CTC1_L_00387003-03
1 10010U 23029DQ  26075.70034722  .00000000  00000+0  00000-0 0  9992
2 10010  60.0000  24.0000 0000000   0.0000 204.0000 13.03091871    16
CTC1_L_00387003-04
1 10011U 22428RQ  26075.70034722  .00000000  00000+0  00000-0 0  9995
2 10011  60.0000  24.0000 0000000   0.0000 294.0000 13.03091871    16
CTC1_L_00387004-01
1 10012U 26512LX  26075.70034722  .00000000  00000+0  00000-0 0  9994
2 10012  60.0000  36.0000 0000000   0.0000  36.0000 13.03091871    14
CTC1_L_00387004-02
1 10013U 24040BX  26075.70034722  .00000000  00000+0  00000-0 0  9999
2 10013  60.0000  36.0000 0000000   0.0000 126.0000 13.03091871    15
CTC1_L_00387004-03
1 10014U 24145EX  26075.70034722  .00000000  00000+0  00000-0 0  9996
2 10014  60.0000  36.0000 0000000   0.0000 216.0000 13.03091871    16
CTC1_L_00387004-04
1 10015U 26099UJ  26075.70034722  .00000000  00000+0  00000-0 0  9997
2 10015  60.0000  36.0000 0000000   0.0000 306.0000 13.03091871    17
CTC1_L_00387005-01
1 10016U 23442GQ  26075.70034722  .00000000  00000+0  00000-0 0  9997
2 10016  60.0000  48.0000 0000000   0.0000  48.0000 13.03091871    14
CTC1_L_00387005-02
1 10017U 24867OK  26075.70034722  .00000000  00000+0  00000-0 0  9990
2 10017  60.0000  48.0000 0000000   0.0000 138.0000 13.03091871    15
CTC1_L_00387005-03
1 10018U 22732HH  26075.70034722  .00000000  00000+0  00000-0 0  9990
2 10018  60.0000  48.0000 0000000   0.0000 228.0000 13.03091871    16
CTC1_L_00387005-04
1 10019U 23540WH  26075.70034722  .00000000  00000+0  00000-0 0  9999
2 10019  60.0000  48.0000 0000000   0.0000 318.0000 13.03091871    17
CTC1_L_00387006-01
1 10020U 22712QD  26075.70034722  .00000000  00000+0  00000-0 0  9991
2 10020  60.0000  60.0000 0000000   0.0000  60.0000 13.03091871    17
CTC1_L_00387006-02
1 10021U 24530UN  26075.70034722  .00000000  00000+0  00000-0 0  9992
2 10021  60.0000  60.0000 0000000   0.0000 150.0000 13.03091871    18
CTC1_L_00387006-03
1 10022U 22851EI  26075.70034722  .00000000  00000+0  00000-0 0  9997
2 10022  60.0000  60.0000 0000000   0.0000 240.0000 13.03091871    19
CTC1_L_00387006-04
1 10023U 26243ON  26075.70034722  .00000000  00000+0  00000-0 0  9997
2 10023  60.0000  60.0000 0000000   0.0000 330.0000 13.03091871    10
CTC1_L_00387007-01
1 10024U 25314GL  26075.70034722  .00000000  00000+0  00000-0 0  9996
2 10024  60.0000  72.0000 0000000   0.0000  72.0000 13.03091871    17
CTC1_L_00387007-02
1 10025U 26814HR  26075.70034722  .00000000  00000+0  00000-0 0  9993
2 10025  60.0000  72.0000 0000000   0.0000 162.0000 13.03091871    18
CTC1_L_00387007-03
1 10026U 22762NT  26075.70034722  .00000000  00000+0  00000-0 0  9992
2 10026  60.0000  72.0000 0000000   0.0000 252.0000 13.03091871    19
CTC1_L_00387007-04
1 10027U 26312SR  26075.70034722  .00000000  00000+0  00000-0 0  9998
2 10027  60.0000  72.0000 0000000   0.0000 342.0000 13.03091871    10
CTC1_L_00387008-01
1 10028U 23806LD  26075.70034722  .00000000  00000+0  00000-0 0  9994
2 10028  60.0000  84.0000 0000000   0.0000  84.0000 13.03091871    17
CTC1_L_00387008-02
1 10029U 23131NV  26075.70034722  .00000000  00000+0  00000-0 0  9996
2 10029  60.0000  84.0000 0000000   0.0000 174.0000 13.03091871    18
CTC1_L_00387008-03
1 10030U 23044RL  26075.70034722  .00000000  00000+0  00000-0 0  9991
2 10030  60.0000  84.0000 0000000   0.0000 264.0000 13.03091871    10
CTC1_L_00387008-04
1 10031U 24942PO  26075.70034722  .00000000  00000+0  00000-0 0  9990
2 10031  60.0000  84.0000 0000000   0.0000 354.0000 13.03091871    11
CTC1_L_00387009-01
1 10032U 23712ZO  26075.70034722  .00000000  00000+0  00000-0 0  9995
2 10032  60.0000  96.0000 0000000   0.0000  96.0000 13.03091871    18
CTC1_L_00387009-02
1 10033U 22612AD  26075.70034722  .00000000  00000+0  00000-0 0  9994
2 10033  60.0000  96.0000 0000000   0.0000 186.0000 13.03091871    19
CTC1_L_00387009-03
1 10034U 24466H   26075.70034722  .00000000  00000+0  00000-0 0  9994
2 10034  60.0000  96.0000 0000000   0.0000 276.0000 13.03091871    10
CTC1_L_00387009-04
1 10035U 25070LK  26075.70034722  .00000000  00000+0  00000-0 0  9997
2 10035  60.0000  96.0000 0000000   0.0000   6.0000 13.03091871    12
CTC1_L_00387010-01
1 10036U 24492PJ  26075.70034722  .00000000  00000+0  00000-0 0  9995
2 10036  60.0000 108.0000 0000000   0.0000 108.0000 13.03091871    10
CTC1_L_00387010-02
1 10037U 22091KA  26075.70034722  .00000000  00000+0  00000-0 0  9999
2 10037  60.0000 108.0000 0000000   0.0000 198.0000 13.03091871    10
CTC1_L_00387010-03
1 10038U 23781TE  26075.70034722  .00000000  00000+0  00000-0 0  9997
2 10038  60.0000 108.0000 0000000   0.0000 288.0000 13.03091871    11
CTC1_L_00387010-04
1 10039U 25322LT  26075.70034722  .00000000  00000+0  00000-0 0  9991
2 10039  60.0000 108.0000 0000000   0.0000  18.0000 13.03091871    13
CTC1_L_00387011-01
1 10040U 24023TU  26075.70034722  .00000000  00000+0  00000-0 0  9990
2 10040  60.0000 120.0000 0000000   0.0000 120.0000 13.03091871    13
CTC1_L_00387011-02
1 10041U 24375LU  26075.70034722  .00000000  00000+0  00000-0 0  9991
2 10041  60.0000 120.0000 0000000   0.0000 210.0000 13.03091871    14
CTC1_L_00387011-03
1 10042U 25667FA  26075.70034722  .00000000  00000+0  00000-0 0  9997
2 10042  60.0000 120.0000 0000000   0.0000 300.0000 13.03091871    15
CTC1_L_00387011-04
1 10043U 25541VN  26075.70034722  .00000000  00000+0  00000-0 0  9999
2 10043  60.0000 120.0000 0000000   0.0000  30.0000 13.03091871    16
CTC1_L_00387012-01
1 10044U 23960YJ  26075.70034722  .00000000  00000+0  00000-0 0  9993
2 10044  60.0000 132.0000 0000000   0.0000 132.0000 13.03091871    13
CTC1_L_00387012-02
1 10045U 26845SX  26075.70034722  .00000000  00000+0  00000-0 0  9999
2 10045  60.0000 132.0000 0000000   0.0000 222.0000 13.03091871    14
CTC1_L_00387012-03
1 10046U 25091NJ  26075.70034722  .00000000  00000+0  00000-0 0  9992
2 10046  60.0000 132.0000 0000000   0.0000 312.0000 13.03091871    15
CTC1_L_00387012-04
1 10047U 24009YT  26075.70034722  .00000000  00000+0  00000-0 0  9991
2 10047  60.0000 132.0000 0000000   0.0000  42.0000 13.03091871    16
CTC1_L_00387013-01
1 10048U 26360H   26075.70034722  .00000000  00000+0  00000-0 0  9994
2 10048  60.0000 144.0000 0000000   0.0000 144.0000 13.03091871    13
CTC1_L_00387013-02
1 10049U 26820UI  26075.70034722  .00000000  00000+0  00000-0 0  9996
2 10049  60.0000 144.0000 0000000   0.0000 234.0000 13.03091871    14
CTC1_L_00387013-03
1 10050U 26752VY  26075.70034722  .00000000  00000+0  00000-0 0  9992
2 10050  60.0000 144.0000 0000000   0.0000 324.0000 13.03091871    16
CTC1_L_00387013-04
1 10051U 22090IC  26075.70034722  .00000000  00000+0  00000-0 0  9994
2 10051  60.0000 144.0000 0000000   0.0000  54.0000 13.03091871    17
CTC1_L_00387014-01
1 10052U 22780TE  26075.70034722  .00000000  00000+0  00000-0 0  9991
2 10052  60.0000 156.0000 0000000   0.0000 156.0000 13.03091871    14
CTC1_L_00387014-02
1 10053U 24659EK  26075.70034722  .00000000  00000+0  00000-0 0  9999
2 10053  60.0000 156.0000 0000000   0.0000 246.0000 13.03091871    15
CTC1_L_00387014-03
1 10054U 25331YN  26075.70034722  .00000000  00000+0  00000-0 0  9998
2 10054  60.0000 156.0000 0000000   0.0000 336.0000 13.03091871    16
CTC1_L_00387014-04
1 10055U 25480HY  26075.70034722  .00000000  00000+0  00000-0 0  9994
2 10055  60.0000 156.0000 0000000   0.0000  66.0000 13.03091871    17
CTC1_L_00387015-01
1 10056U 23170JS  26075.70034722  .00000000  00000+0  00000-0 0  9999
2 10056  60.0000 168.0000 0000000   0.0000 168.0000 13.03091871    14
CTC1_L_00387015-02
1 10057U 26230VL  26075.70034722  .00000000  00000+0  00000-0 0  9990
2 10057  60.0000 168.0000 0000000   0.0000 258.0000 13.03091871    15
CTC1_L_00387015-03
1 10058U 23414WR  26075.70034722  .00000000  00000+0  00000-0 0  9992
2 10058  60.0000 168.0000 0000000   0.0000 348.0000 13.03091871    16
CTC1_L_00387015-04
1 10059U 26273WG  26075.70034722  .00000000  00000+0  00000-0 0  9999
2 10059  60.0000 168.0000 0000000   0.0000  78.0000 13.03091871    17
CTC1_L_00387016-01
1 10060U 22171IK  26075.70034722  .00000000  00000+0  00000-0 0  9994
2 10060  60.0000 180.0000 0000000   0.0000 180.0000 13.03091871    17
CTC1_L_00387016-02
1 10061U 24932GN  26075.70034722  .00000000  00000+0  00000-0 0  9992
2 10061  60.0000 180.0000 0000000   0.0000 270.0000 13.03091871    18
